{"type": "FeatureCollection", "features": [{"type": "Feature", "properties": {"norad_id": 24946, "name": "IRIDIUM 33", "group": "iridium-33-debris", "lat": -45.03687417270499, "lon": -108.36017496180087, "alt_km": 777.274368395163, "timestamp": "2025-12-13T05:42:57.955717+00:00", "meta": {"OBJECT_NAME": "IRIDIUM 33", "OBJECT_ID": "1997-051C", "EPOCH": "2025-12-12T06:54:54.433728", "MEAN_MOTION": 14.35037182, "ECCENTRICITY": 0.00069711, "INCLINATION": 86.3869, "RA_OF_ASC_NODE": 68.4112, "ARG_OF_PERICENTER": 201.9073, "MEAN_ANOMALY": 158.1826, "EPHEMERIS_TYPE": 0, "CLASSIFICATION_TYPE": "U", "NORAD_CAT_ID": 24946, "ELEMENT_SET_NO": 999, "REV_AT_EPOCH": 47828, "BSTAR": 0.00019352653, "MEAN_MOTION_DOT": 5.71e-06, "MEAN_MOTION_DDOT": 0}, "tle": {"line1": "1 24946U 97051C   25346.28813002  .00000571  00000+0  19353-3 0  9997", "line2": "2 24946  86.3869  68.4112 0006971 201.9073 158.1826 14.35037182478288"}}, "geometry": {"type": "Point", "coordinates": [-108.36017496180087, -45.03687417270499]}}, {"type": "Feature", "properties": {"norad_id": 33773, "name": "IRIDIUM 33 DEB", "group": "iridium-33-debris", "lat": -16.94564035889448, "lon": -118.52269864804742, "alt_km": 747.3006412708119, "timestamp": "2025-12-13T05:42:57.955760+00:00", "meta": {"OBJECT_NAME": "IRIDIUM 33 DEB", "OBJECT_ID": "1997-051L", "EPOCH": "2025-12-12T07:10:33.831552", "MEAN_MOTION": 14.43256022, "ECCENTRICITY": 0.00124838, "INCLINATION": 86.4013, "RA_OF_ASC_NODE": 60.7764, "ARG_OF_PERICENTER": 147.544, "MEAN_ANOMALY": 212.6532, "EPHEMERIS_TYPE": 0, "CLASSIFICATION_TYPE": "U", "NORAD_CAT_ID": 33773, "ELEMENT_SET_NO": 999, "REV_AT_EPOCH": 88341, "BSTAR": 0.00049735243, "MEAN_MOTION_DOT": 1.694e-05, "MEAN_MOTION_DDOT": 0}, "tle": {"line1": "1 33773U 97051L   25346.29900268  .00001694  00000+0  49735-3 0  9991", "line2": "2 33773  86.4013  60.7764 0012483 147.5440 212.6532 14.43256022883414"}}, "geometry": {"type": "Point", "coordinates": [-118.52269864804742, -16.94564035889448]}}, {"type": "Feature", "properties": {"norad_id": 33775, "name": "IRIDIUM 33 DEB", "group": "iridium-33-debris", "lat": -81.96579707549688, "lon": 22.56419745879818, "alt_km": 766.8144323605029, "timestamp": "2025-12-13T05:42:57.955777+00:00", "meta": {"OBJECT_NAME": "IRIDIUM 33 DEB", "OBJECT_ID": "1997-051N", "EPOCH": "2025-12-12T05:23:08.151360", "MEAN_MOTION": 14.41467189, "ECCENTRICITY": 0.0014235, "INCLINATION": 86.3638, "RA_OF_ASC_NODE": 49.7737, "ARG_OF_PERICENTER": 156.1691, "MEAN_ANOMALY": 263.4776, "EPHEMERIS_TYPE": 0, "CLASSIFICATION_TYPE": "U", "NORAD_CAT_ID": 33775, "ELEMENT_SET_NO": 999, "REV_AT_EPOCH": 88133, "BSTAR": 0.00050901024, "MEAN_MOTION_DOT": 1.672e-05, "MEAN_MOTION_DDOT": 0}, "tle": {"line1": "1 33775U 97051N   25346.22439990  .00001672  00000+0  50901-3 0  9998", "line2": "2 33775  86.3638  49.7737 0014235 156.1691 263.4776 14.41467189881335"}}, "geometry": {"type": "Point", "coordinates": [22.56419745879818, -81.96579707549688]}}, {"type": "Feature", "properties": {"norad_id": 33776, "name": "IRIDIUM 33 DEB", "group": "iridium-33-debris", "lat": 38.998388340603846, "lon": -102.35258492982791, "alt_km": 754.6089271402561, "timestamp": "2025-12-13T05:42:57.955792+00:00", "meta": {"OBJECT_NAME": "IRIDIUM 33 DEB", "OBJECT_ID": "1997-051P", "EPOCH": "2025-12-12T07:37:58.224000", "MEAN_MOTION": 14.38234134, "ECCENTRICITY": 0.00142872, "INCLINATION": 86.4036, "RA_OF_ASC_NODE": 80.9529, "ARG_OF_PERICENTER": 191.7377, "MEAN_ANOMALY": 228.0903, "EPHEMERIS_TYPE": 0, "CLASSIFICATION_TYPE": "U", "NORAD_CAT_ID": 33776, "ELEMENT_SET_NO": 999, "REV_AT_EPOCH": 88076, "BSTAR": 0.00046256544, "MEAN_MOTION_DOT": 1.426e-05, "MEAN_MOTION_DDOT": 0}, "tle": {"line1": "1 33776U 97051P   25346.31803500  .00001426  00000+0  46257-3 0  9997", "line2": "2 33776  86.4036  80.9529 0014287 191.7377 228.0903 14.38234134880761"}}, "geometry": {"type": "Point", "coordinates": [-102.35258492982791, 38.998388340603846]}}, {"type": "Feature", "properties": {"norad_id": 33777, "name": "IRIDIUM 33 DEB", "group": "iridium-33-debris", "lat": -40.16792577057732, "lon": 31.92228739083875, "alt_km": 712.8197172546115, "timestamp": "2025-12-13T05:42:57.955805+00:00", "meta": {"OBJECT_NAME": "IRIDIUM 33 DEB", "OBJECT_ID": "1997-051Q", "EPOCH": "2025-12-12T03:30:11.220480", "MEAN_MOTION": 14.55608327, "ECCENTRICITY": 0.00051496, "INCLINATION": 86.3787, "RA_OF_ASC_NODE": 35.4615, "ARG_OF_PERICENTER": 251.76, "MEAN_ANOMALY": 108.3047, "EPHEMERIS_TYPE": 0, "CLASSIFICATION_TYPE": "U", "NORAD_CAT_ID": 33777, "ELEMENT_SET_NO": 999, "REV_AT_EPOCH": 88525, "BSTAR": 0.0013938391, "MEAN_MOTION_DOT": 6.101e-05, "MEAN_MOTION_DDOT": 0}, "tle": {"line1": "1 33777U 97051Q   25346.14596320  .00006101  00000+0  13938-2 0  9992", "line2": "2 33777  86.3787  35.4615 0005149 251.7600 108.3047 14.55608327885254"}}, "geometry": {"type": "Point", "coordinates": [31.92228739083875, -40.16792577057732]}}, {"type": "Feature", "properties": {"norad_id": 33850, "name": "IRIDIUM 33 DEB", "group": "iridium-33-debris", "lat": -78.72435068913661, "lon": -131.31825943583428, "alt_km": 760.3540201137503, "timestamp": "2025-12-13T05:42:57.955819+00:00", "meta": {"OBJECT_NAME": "IRIDIUM 33 DEB", "OBJECT_ID": "1997-051T", "EPOCH": "2025-12-12T03:47:17.414016", "MEAN_MOTION": 14.4214467, "ECCENTRICITY": 0.00121703, "INCLINATION": 86.3418, "RA_OF_ASC_NODE": 30.43, "ARG_OF_PERICENTER": 162.7962, "MEAN_ANOMALY": 251.1586, "EPHEMERIS_TYPE": 0, "CLASSIFICATION_TYPE": "U", "NORAD_CAT_ID": 33850, "ELEMENT_SET_NO": 999, "REV_AT_EPOCH": 88144, "BSTAR": 0.000462436, "MEAN_MOTION_DOT": 1.541e-05, "MEAN_MOTION_DDOT": 0}, "tle": {"line1": "1 33850U 97051T   25346.15784044  .00001541  00000+0  46244-3 0  9997", "line2": "2 33850  86.3418  30.4300 0012170 162.7962 251.1586 14.42144670881441"}}, "geometry": {"type": "Point", "coordinates": [-131.31825943583428, -78.72435068913661]}}, {"type": "Feature", "properties": {"norad_id": 33853, "name": "IRIDIUM 33 DEB", "group": "iridium-33-debris", "lat": -23.88443317227127, "lon": 171.36864429122758, "alt_km": 771.9505407354945, "timestamp": "2025-12-13T05:42:57.955832+00:00", "meta": {"OBJECT_NAME": "IRIDIUM 33 DEB", "OBJECT_ID": "1997-051W", "EPOCH": "2025-12-11T23:41:06.381888", "MEAN_MOTION": 13.99054711, "ECCENTRICITY": 0.020703, "INCLINATION": 86.0002, "RA_OF_ASC_NODE": 350.1415, "ARG_OF_PERICENTER": 238.1458, "MEAN_ANOMALY": 148.4368, "EPHEMERIS_TYPE": 0, "CLASSIFICATION_TYPE": "U", "NORAD_CAT_ID": 33853, "ELEMENT_SET_NO": 999, "REV_AT_EPOCH": 85335, "BSTAR": 0.0027296, "MEAN_MOTION_DOT": 4.759e-05, "MEAN_MOTION_DDOT": 0}, "tle": {"line1": "1 33853U 97051W   25345.98687942  .00004759  00000+0  27296-2 0  9998", "line2": "2 33853  86.0002 350.1415 0207030 238.1458 148.4368 13.99054711853350"}}, "geometry": {"type": "Point", "coordinates": [171.36864429122758, -23.88443317227127]}}, {"type": "Feature", "properties": {"norad_id": 33860, "name": "IRIDIUM 33 DEB", "group": "iridium-33-debris", "lat": -58.027570032520664, "lon": -147.16730306442574, "alt_km": 679.1360241732073, "timestamp": "2025-12-13T05:42:57.955845+00:00", "meta": {"OBJECT_NAME": "IRIDIUM 33 DEB", "OBJECT_ID": "1997-051AD", "EPOCH": "2025-12-12T02:34:47.224128", "MEAN_MOTION": 14.67356525, "ECCENTRICITY": 0.00075567, "INCLINATION": 86.3837, "RA_OF_ASC_NODE": 27.5179, "ARG_OF_PERICENTER": 359.9518, "MEAN_ANOMALY": 29.3124, "EPHEMERIS_TYPE": 0, "CLASSIFICATION_TYPE": "U", "NORAD_CAT_ID": 33860, "ELEMENT_SET_NO": 999, "REV_AT_EPOCH": 88713, "BSTAR": 0.0018445865, "MEAN_MOTION_DOT": 0.00010448, "MEAN_MOTION_DDOT": 0}, "tle": {"line1": "1 33860U 97051AD  25346.10749102  .00010448  00000+0  18446-2 0  9997", "line2": "2 33860  86.3837  27.5179 0007556 359.9518  29.3124 14.67356525887133"}}, "geometry": {"type": "Point", "coordinates": [-147.16730306442574, -58.027570032520664]}}, {"type": "Feature", "properties": {"norad_id": 33862, "name": "IRIDIUM 33 DEB", "group": "iridium-33-debris", "lat": -82.1680596791272, "lon": 10.148107664525002, "alt_km": 702.8765156221425, "timestamp": "2025-12-13T05:42:57.955857+00:00", "meta": {"OBJECT_NAME": "IRIDIUM 33 DEB", "OBJECT_ID": "1997-051AF", "EPOCH": "2025-12-12T04:11:14.356608", "MEAN_MOTION": 14.69464382, "ECCENTRICITY": 0.00535195, "INCLINATION": 86.4093, "RA_OF_ASC_NODE": 37.7792, "ARG_OF_PERICENTER": 71.1208, "MEAN_ANOMALY": 342.7383, "EPHEMERIS_TYPE": 0, "CLASSIFICATION_TYPE": "U", "NORAD_CAT_ID": 33862, "ELEMENT_SET_NO": 999, "REV_AT_EPOCH": 88815, "BSTAR": 0.002179996, "MEAN_MOTION_DOT": 0.00013234, "MEAN_MOTION_DDOT": 0}, "tle": {"line1": "1 33862U 97051AF  25346.17447172  .00013234  00000+0  21800-2 0  9992", "line2": "2 33862  86.4093  37.7792 0053519  71.1208 342.7383 14.69464382888158"}}, "geometry": {"type": "Point", "coordinates": [10.148107664525002, -82.1680596791272]}}, {"type": "Feature", "properties": {"norad_id": 33866, "name": "IRIDIUM 33 DEB", "group": "iridium-33-debris", "lat": -83.4789426705837, "lon": -52.69323133242416, "alt_km": 835.1904914202796, "timestamp": "2025-12-13T05:42:57.955869+00:00", "meta": {"OBJECT_NAME": "IRIDIUM 33 DEB", "OBJECT_ID": "1997-051AK", "EPOCH": "2025-12-12T06:51:08.189280", "MEAN_MOTION": 14.25273086, "ECCENTRICITY": 0.01144477, "INCLINATION": 86.2996, "RA_OF_ASC_NODE": 93.2276, "ARG_OF_PERICENTER": 162.8384, "MEAN_ANOMALY": 255.4806, "EPHEMERIS_TYPE": 0, "CLASSIFICATION_TYPE": "U", "NORAD_CAT_ID": 33866, "ELEMENT_SET_NO": 999, "REV_AT_EPOCH": 86804, "BSTAR": 0.0010790636, "MEAN_MOTION_DOT": 2.737e-05, "MEAN_MOTION_DDOT": 0}, "tle": {"line1": "1 33866U 97051AK  25346.28551145  .00002737  00000+0  10791-2 0  9997", "line2": "2 33866  86.2996  93.2276 0114447 162.8384 255.4806 14.25273086868044"}}, "geometry": {"type": "Point", "coordinates": [-52.69323133242416, -83.4789426705837]}}]}